NORAD_CAT_ID,OBJECT_NAME,OBJECT_TYPE,EPOCH,MEAN_MOTION,ECCENTRICITY,INCLINATION,RA_OF_ASC_NODE,ARG_OF_PERICENTER,MEAN_ANOMALY,BSTAR,MEAN_MOTION_DOT,MEAN_MOTION_DDOT,TLE_LINE0,TLE_LINE1,TLE_LINE2,SEMIMAJOR_AXIS,PERIOD,APOGEE,PERIGEE,DECAYED
54005.0,STARLINK-5135,PAYLOAD,2024-07-12 21:34:42,15.08836815,0.0001725,53.2189,48.857,111.9262,248.1914,-1.4598e-05,-5.2e-06,0.0,0 STARLINK-5135,1 54005U 22125AT  24194.89910448 -.00000520  00000-0 -14598-4 0  9999,2 54005  53.2189  48.8570 0001725 111.9262 248.1914 15.08836815 98217,6917.89,95.438,540.948,538.562,0.0
54005.0,STARLINK-5135,PAYLOAD,2024-07-13 07:07:01,15.0883694,0.0001648,53.2191,47.0723,102.928,257.1896,-1.4325e-05,-5.16e-06,0.0,0 STARLINK-5135,1 54005U 22125AT  24195.29654525 -.00000516  00000-0 -14325-4 0  9998,2 54005  53.2191  47.0723 0001648 102.9280 257.1896 15.08836940 98224,6917.89,95.438,540.895,538.615,0.0
54005.0,STARLINK-5135,PAYLOAD,2024-07-13 21:25:29,15.08844077,0.000126,53.2169,44.3925,96.6568,263.4568,2.4087e-05,9.6e-07,0.0,0 STARLINK-5135,1 54005U 22125AT  24195.89270034  .00000096  00000-0  24087-4 0  9990,2 54005  53.2169  44.3925 0001260  96.6568 263.4568 15.08844077 98317,6917.868,95.437,540.605,538.861,0.0
54005.0,STARLINK-5135,PAYLOAD,2024-07-13 23:00:52,15.08848502,0.0001362,53.2174,44.0955,99.5639,260.5507,5.9222e-05,6.55e-06,0.0,0 STARLINK-5135,1 54005U 22125AT  24195.95893647  .00000655  00000-0  59222-4 0  9998,2 54005  53.2174  44.0955 0001362  99.5639 260.5507 15.08848502 98371,6917.854,95.437,540.662,538.777,0.0
54005.0,STARLINK-5135,PAYLOAD,2024-07-14 13:19:20,15.08835826,0.0001411,53.2182,41.4188,85.0682,275.0471,0.00013483,1.858e-05,0.0,0 STARLINK-5135,1 54005U 22125AT  24196.55510213  .00001858  00000-0  13483-3 0  9994,2 54005  53.2182  41.4188 0001411  85.0682 275.0471 15.08835826 98413,6917.893,95.438,540.734,538.782,0.0
54005.0,STARLINK-5135,PAYLOAD,2024-07-14 21:16:16,15.08842097,0.0001361,53.2171,39.932,87.3619,272.7528,9.6288e-05,1.245e-05,0.0,0 STARLINK-5135,1 54005U 22125AT  24196.88629951  .00001245  00000-0  96288-4 0  9995,2 54005  53.2171  39.9320 0001361  87.3619 272.7528 15.08842097 98516,6917.874,95.437,540.681,538.797,0.0
54005.0,STARLINK-5135,PAYLOAD,2024-07-15 06:48:35,15.08841625,0.0001301,53.217,38.1474,86.2206,273.8935,7.1919e-05,8.57e-06,0.0,0 STARLINK-5135,1 54005U 22125AT  24197.28374046  .00000857  00000-0  71919-4 0  9994,2 54005  53.2170  38.1474 0001301  86.2206 273.8935 15.08841625 98521,6917.875,95.437,540.64,538.84,0.0
54005.0,STARLINK-5135,PAYLOAD,2024-07-15 19:31:40,15.08832393,0.0001173,53.2164,35.7665,92.2599,267.8528,1.7903e-05,-3e-08,0.0,0 STARLINK-5135,1 54005U 22125AT  24197.81366850 -.00000003  00000-0  17903-4 0  9994,2 54005  53.2164  35.7665 0001173  92.2599 267.8528 15.08832393 98655,6917.904,95.438,540.58,538.957,0.0
54005.0,STARLINK-5135,PAYLOAD,2024-07-16 06:39:22,15.08845002,0.0001383,53.2177,33.6844,97.1648,262.9502,1.2509e-05,-8.9e-07,0.0,0 STARLINK-5135,1 54005U 22125AT  24198.27734034 -.00000089  00000-0  12509-4 0  9999,2 54005  53.2177  33.6844 0001383  97.1648 262.9502 15.08845002 98724,6917.865,95.437,540.687,538.773,0.0
54005.0,STARLINK-5135,PAYLOAD,2024-07-16 19:22:25,15.08885219,0.0001372,53.217,31.3063,105.9644,254.15,-0.00041457,-6.888e-05,0.0,0 STARLINK-5135,1 54005U 22125AT  24198.80724489 -.00006888  00000-0 -41457-3 0  9998,2 54005  53.2170  31.3063 0001372 105.9644 254.1500 15.08885219 98755,6917.742,95.435,540.556,538.658,0.0
54005.0,STARLINK-5135,PAYLOAD,2024-07-17 06:30:09,15.08846783,0.0001548,53.2169,29.2266,71.8915,288.2246,-2.8385e-06,-3.33e-06,0.0,0 STARLINK-5135,1 54005U 22125AT  24199.27093884 -.00000333  00000-0 -28385-5 0  9994,2 54005  53.2169  29.2266 0001548  71.8915 288.2246 15.08846783 98872,6917.86,95.437,540.796,538.654,0.0
54005.0,STARLINK-5135,PAYLOAD,2024-07-17 17:37:51,15.08833871,0.000155,53.2177,27.141,105.7407,254.3756,6.8062e-05,7.95e-06,0.0,0 STARLINK-5135,1 54005U 22125AT  24199.73462776  .00000795  00000-0  68062-4 0  9990,2 54005  53.2177  27.1410 0001550 105.7407 254.3756 15.08833871 98947,6917.899,95.438,540.836,538.692,0.0
54005.0,STARLINK-5135,PAYLOAD,2024-07-18 19:04:02,15.08834524,0.0001165,53.2195,22.3864,86.3968,273.7157,5.8598e-06,-1.95e-06,0.0,0 STARLINK-5135,1 54005U 22125AT  24200.79447468 -.00000195  00000-0  58598-5 0  9999,2 54005  53.2195  22.3864 0001165  86.3968 273.7157 15.08834524 99100,6917.897,95.438,540.568,538.956,0.0
54005.0,STARLINK-5135,PAYLOAD,2024-07-19 18:54:47,15.08855493,0.0001219,53.2187,17.9265,83.2231,276.89,0.00032272,4.854e-05,0.0,0 STARLINK-5135,1 54005U 22125AT  24201.78805535  .00004854  00000-0  32272-3 0  9996,2 54005  53.2187  17.9265 0001219  83.2231 276.8900 15.08855493 99259,6917.833,95.437,540.541,538.855,0.0
54005.0,STARLINK-5135,PAYLOAD,2024-07-20 04:27:07,15.088418,0.0001223,53.2179,16.1402,75.9093,284.2035,0.00022187,3.245e-05,0.0,0 STARLINK-5135,1 54005U 22125AT  24202.18550665  .00003245  00000-0  22187-3 0  9999,2 54005  53.2179  16.1402 0001223  75.9093 284.2035 15.08841800 99319,6917.875,95.437,540.586,538.894,0.0
54005.0,STARLINK-5135,PAYLOAD,2024-07-20 10:48:40,15.08844611,0.0001397,53.2179,14.9567,98.3774,261.7376,0.00012367,1.681e-05,0.0,0 STARLINK-5135,1 54005U 22125AT  24202.45046791  .00001681  00000-0  12367-3 0  9990,2 54005  53.2179  14.9567 0001397  98.3774 261.7376 15.08844611 99304,6917.866,95.437,540.698,538.765,0.0
54005.0,STARLINK-5135,PAYLOAD,2024-07-20 18:45:36,15.08841594,0.0001176,53.2184,13.4683,108.6191,251.4929,9.0346e-05,1.15e-05,0.0,0 STARLINK-5135,1 54005U 22125AT  24202.78167031  .00001150  00000-0  90346-4 0  9992,2 54005  53.2184  13.4683 0001176 108.6191 251.4929 15.08841594 99404,6917.876,95.437,540.554,538.927,0.0
54005.0,STARLINK-5135,PAYLOAD,2024-07-21 10:39:27,15.088476,0.0001235,53.219,10.4947,99.2156,260.8976,-0.00011234,-2.076e-05,0.0,0 STARLINK-5135,1 54005U 22125AT  24203.44407279 -.00002076  00000-0 -11234-3 0  9995,2 54005  53.2190  10.4947 0001235  99.2156 260.8976 15.08847600 99458,6917.857,95.437,540.577,538.868,0.0
54005.0,STARLINK-5135,PAYLOAD,2024-07-21 18:36:23,15.08851418,0.000131,53.2185,9.0064,92.3177,267.7965,-0.00010078,-1.892e-05,0.0,0 STARLINK-5135,1 54005U 22125AT  24203.77526888 -.00001892  00000-0 -10078-3 0  9999,2 54005  53.2185   9.0064 0001310  92.3177 267.7965 15.08851418 99509,6917.845,95.437,540.617,538.804,0.0
54005.0,STARLINK-5135,PAYLOAD,2024-07-22 10:30:15,15.08834685,0.0001195,53.2183,6.034,85.8871,274.2258,8.2564e-05,1.026e-05,0.0,0 STARLINK-5135,1 54005U 22125AT  24204.43767449  .00001026  00000-0  82564-4 0  9990,2 54005  53.2183   6.0340 0001195  85.8871 274.2258 15.08834685 99651,6917.897,95.438,540.588,538.935,0.0
54005.0,STARLINK-5135,PAYLOAD,2024-07-23 19:53:20,15.08842451,0.0001211,53.2173,359.7877,89.3029,270.8101,0.00012032,1.628e-05,0.0,0 STARLINK-5135,1 54005U 22125AT  24205.82871168  .00001628  00000-0  12032-3 0  9998,2 54005  53.2173 359.7877 0001211  89.3029 270.8101 15.08842451 99868,6917.873,95.437,540.576,538.9,0.0
54005.0,STARLINK-5135,PAYLOAD,2024-07-25 10:02:35,15.08850325,8.21e-05,53.2169,352.6504,68.3241,291.7839,0.00013102,1.799e-05,0.0,0 STARLINK-5135,1 54005U 22125AT  24207.41846663  .00001799  00000-0  13102-3 0  9995,2 54005  53.2169 352.6504 0000821  68.3241 291.7839 15.08850325100100,6917.849,95.437,540.282,539.146,0.0
54005.0,STARLINK-5135,PAYLOAD,2024-07-26 09:53:20,15.08873503,7.65e-05,53.2178,348.1918,344.2864,15.8105,0.00033983,5.13e-05,0.0,0 STARLINK-5135,1 54005U 22125AT  24208.41204751  .00005130  00000-0  33983-3 0  9994,2 54005  53.2178 348.1918 0000765 344.2864  15.8105 15.08873503100253,6917.778,95.435,540.172,539.114,0.0
54005.0,STARLINK-5135,PAYLOAD,2024-07-26 17:50:17,15.08856979,0.0001206,53.216,346.7032,90.2862,269.8269,0.0001007,1.316e-05,0.0,0 STARLINK-5135,1 54005U 22125AT  24208.74326380  .00001316  00000-0  10070-3 0  9997,2 54005  53.2160 346.7032 0001206  90.2862 269.8269 15.08856979100308,6917.828,95.436,540.528,538.859,0.0
54005.0,STARLINK-5135,PAYLOAD,2024-07-27 01:47:14,15.08846212,0.0001015,53.2187,345.2151,77.4721,282.6384,5.8389e-06,-1.95e-06,0.0,0 STARLINK-5135,1 54005U 22125AT  24209.07447128 -.00000195  00000-0  58389-5 0  9990,2 54005  53.2187 345.2151 0001015  77.4721 282.6384 15.08846212100357,6917.861,95.437,540.429,539.024,0.0
54005.0,STARLINK-5135,PAYLOAD,2024-07-27 09:44:13,15.08808417,0.0001012,53.2187,343.7272,63.6682,296.4414,-0.00030637,-5.156e-05,0.0,0 STARLINK-5135,1 54005U 22125AT  24209.40570633 -.00005156  00000-0 -30637-3 0  9992,2 54005  53.2187 343.7272 0001012  63.6682 296.4414 15.08808417100402,6917.977,95.44,540.542,539.142,0.0
54005.0,STARLINK-5135,PAYLOAD,2024-07-27 17:41:08,15.08817302,0.0001547,53.2175,342.2422,76.5344,283.5821,-0.00020505,-3.548e-05,0.0,0 STARLINK-5135,1 54005U 22125AT  24209.73690289 -.00003548  00000-0 -20505-3 0  9994,2 54005  53.2175 342.2422 0001547  76.5344 283.5821 15.08817302100403,6917.95,95.439,540.885,538.745,0.0
54005.0,STARLINK-5135,PAYLOAD,2024-07-28 01:38:02,15.08831936,3.16e-05,53.2188,340.7554,89.894,270.2088,-3.4769e-05,-8.41e-06,0.0,0 STARLINK-5135,1 54005U 22125AT  24210.06808728 -.00000841  00000-0 -34769-4 0  9992,2 54005  53.2188 340.7554 0000316  89.8940 270.2088 15.08831936100506,6917.905,95.438,539.989,539.551,0.0
54005.0,STARLINK-5135,PAYLOAD,2024-07-28 12:45:44,15.08845028,0.0001358,53.2162,338.6741,85.5884,274.5264,-9.3521e-06,-4.37e-06,0.0,0 STARLINK-5135,1 54005U 22125AT  24210.53176271 -.00000437  00000-0 -93521-5 0  9998,2 54005  53.2162 338.6741 0001358  85.5884 274.5264 15.08845028100576,6917.865,95.437,540.669,538.791,0.0
54005.0,STARLINK-5135,PAYLOAD,2024-07-28 17:31:52,15.08854625,0.0001209,53.2193,337.7809,66.0746,294.0373,8.4752e-05,1.062e-05,0.0,0 STARLINK-5135,1 54005U 22125AT  24210.73047430  .00001062  00000-0  84752-4 0  9992,2 54005  53.2193 337.7809 0001209  66.0746 294.0373 15.08854625100606,6917.836,95.437,540.537,538.864,0.0
